[
    {
        "Altitude(m)": 617710.705106556,
        "Argument of Periapsis(deg)": 0.0,
        "Eccentricity": 0.0,
        "Inclination(deg)": 60.0,
        "Latitude(deg)": -41.10283731620571,
        "Longitude(deg)": -80.03333414367509,
        "Mean Anomaly(deg)": -49.090899999999955,
        "RAAN(deg)": 50.0,
        "Satellite Name": "Test1 239",
        "Satellite Number": 239,
        "Semi-Major Axis(m)": 6980739.136638005,
        "Time(s)": 0
    },
    {
        "Altitude(m)": 617518.0033089918,
        "Argument of Periapsis(deg)": 0.00010418945913296404,
        "Eccentricity": 0.0,
        "Inclination(deg)": 60.0,
        "Latitude(deg)": -40.637043922776364,
        "Longitude(deg)": -79.5365398127055,
        "Mean Anomaly(deg)": -48.47079385453811,
        "RAAN(deg)": 49.99957995086026,
        "Satellite Name": "Test1 239",
        "Satellite Number": 239,
        "Semi-Major Axis(m)": 6980739.136638005,
        "Time(s)": 10
    }
]